HXMT (HUIYAN)           
1 42758U 17034A   26072.26616812  .00006773  00000+0  33844-3 0  9997
2 42758  43.0161 356.7891 0033232 257.7062 102.0065 15.17520938483082
SAOCOM 1A               
1 43641U 18076A   26072.60859488  .00000322  00000+0  46958-4 0  9997
2 43641  97.8899 260.7255 0001441  88.0176 272.1202 14.82144464401949
H-2A R/B                
1 43682U 18084L   26072.56282331  .00024537  00000+0  57975-3 0  9997
2 43682  98.8734 290.7791 0025152  12.0440 348.1398 15.41524051406379
SAOCOM 1B               
1 46265U 20059A   26072.57232571  .00000174  00000+0  28381-4 0  9995
2 46265  97.8900 259.7873 0001393  86.3247 273.8125 14.82151649299329
CSS (TIANHE)            
1 48274U 21035A   26072.55482282  .00030215  00000+0  35350-3 0  9998
2 48274  41.4662 184.6407 0006739 297.0069  63.0081 15.60878289278210
COSMOS 2550             
1 48865U 21056A   26071.38646080 -.00000190  00000+0  60433-7 0  9999
2 48865  67.1461  32.7743 0008377 269.6455  90.3740 15.33837293263879
CZ-2C R/B               
1 52794U 22058K   26072.62663335  .00037629  00000+0  54274-3 0  9996
2 52794  50.1892 298.0335 0042064 217.5688 142.2341 15.54530228210743
CZ-2C R/B               
1 54039U 22132E   26072.47164885  .00052766  00000+0  59235-3 0  9993
2 54039  97.2965  75.9042 0020406  79.5006 280.8550 15.62221713190960
GSLV R/B                
1 54149U 22138AN  26072.33099279  .00004083  00000+0  35238-3 0  9996
2 54149  87.3882 165.1445 0023468 134.2795 226.0368 14.96804057184476
XRISM                   
1 57800U 23137A   26072.60278678  .00006184  00000+0  35005-3 0  9991
2 57800  31.0009 258.3526 0007879  78.1842 281.9680 15.11547716138382
ACS3                    
1 59588U 24077B   26072.31396019  .00014774  00000+0  11847-1 0  9998
2 59588  97.2045  12.6111 0062790  67.8385 292.9427 13.89761996 94701
SZ-21 MODULE            
1 66515U 25246C   26072.57488950  .00042463  00000+0  36005-3 0  9990
2 66515  41.4731 179.4377 0001010 309.0341  51.0410 15.68874146 18689
