[{"OBJECT_NAME":"HXMT (HUIYAN)","OBJECT_ID":"2017-034A","EPOCH":"2026-03-13T06:23:16.925568","MEAN_MOTION":15.17520938,"ECCENTRICITY":0.00332323,"INCLINATION":43.0161,"RA_OF_ASC_NODE":356.7891,"ARG_OF_PERICENTER":257.7062,"MEAN_ANOMALY":102.0065,"EPHEMERIS_TYPE":0,"CLASSIFICATION_TYPE":"U","NORAD_CAT_ID":42758,"ELEMENT_SET_NO":999,"REV_AT_EPOCH":48308,"BSTAR":0.00033843718,"MEAN_MOTION_DOT":6.773e-5,"MEAN_MOTION_DDOT":0},{"OBJECT_NAME":"SAOCOM 1A","OBJECT_ID":"2018-076A","EPOCH":"2026-03-13T14:36:22.597632","MEAN_MOTION":14.82144464,"ECCENTRICITY":0.00014416,"INCLINATION":97.8899,"RA_OF_ASC_NODE":260.7255,"ARG_OF_PERICENTER":88.0176,"MEAN_ANOMALY":272.1202,"EPHEMERIS_TYPE":0,"CLASSIFICATION_TYPE":"U","NORAD_CAT_ID":43641,"ELEMENT_SET_NO":999,"REV_AT_EPOCH":40194,"BSTAR":4.6958329e-5,"MEAN_MOTION_DOT":3.22e-6,"MEAN_MOTION_DDOT":0},{"OBJECT_NAME":"H-2A R/B","OBJECT_ID":"2018-084L","EPOCH":"2026-03-13T13:30:27.933984","MEAN_MOTION":15.41524051,"ECCENTRICITY":0.00251527,"INCLINATION":98.8734,"RA_OF_ASC_NODE":290.7791,"ARG_OF_PERICENTER":12.044,"MEAN_ANOMALY":348.1398,"EPHEMERIS_TYPE":0,"CLASSIFICATION_TYPE":"U","NORAD_CAT_ID":43682,"ELEMENT_SET_NO":999,"REV_AT_EPOCH":40637,"BSTAR":0.00057974703,"MEAN_MOTION_DOT":0.00024537,"MEAN_MOTION_DDOT":0},{"OBJECT_NAME":"SAOCOM 1B","OBJECT_ID":"2020-059A","EPOCH":"2026-03-13T13:44:08.941344","MEAN_MOTION":14.82151649,"ECCENTRICITY":0.00013934,"INCLINATION":97.89,"RA_OF_ASC_NODE":259.7873,"ARG_OF_PERICENTER":86.3247,"MEAN_ANOMALY":273.8125,"EPHEMERIS_TYPE":0,"CLASSIFICATION_TYPE":"U","NORAD_CAT_ID":46265,"ELEMENT_SET_NO":999,"REV_AT_EPOCH":29932,"BSTAR":2.8380973e-5,"MEAN_MOTION_DOT":1.74e-6,"MEAN_MOTION_DDOT":0},{"OBJECT_NAME":"CSS (TIANHE)","OBJECT_ID":"2021-035A","EPOCH":"2026-03-13T13:18:56.691648","MEAN_MOTION":15.60878289,"ECCENTRICITY":0.00067395,"INCLINATION":41.4662,"RA_OF_ASC_NODE":184.6407,"ARG_OF_PERICENTER":297.0069,"MEAN_ANOMALY":63.0081,"EPHEMERIS_TYPE":0,"CLASSIFICATION_TYPE":"U","NORAD_CAT_ID":48274,"ELEMENT_SET_NO":999,"REV_AT_EPOCH":27821,"BSTAR":0.00035349736,"MEAN_MOTION_DOT":0.00030215,"MEAN_MOTION_DDOT":0},{"OBJECT_NAME":"COSMOS 2550","OBJECT_ID":"2021-056A","EPOCH":"2026-03-12T09:16:30.213120","MEAN_MOTION":15.33837293,"ECCENTRICITY":0.0008377,"INCLINATION":67.1461,"RA_OF_ASC_NODE":32.7743,"ARG_OF_PERICENTER":269.6455,"MEAN_ANOMALY":90.374,"EPHEMERIS_TYPE":0,"CLASSIFICATION_TYPE":"U","NORAD_CAT_ID":48865,"ELEMENT_SET_NO":999,"REV_AT_EPOCH":26387,"BSTAR":6.0433e-8,"MEAN_MOTION_DOT":-1.9e-6,"MEAN_MOTION_DDOT":0},{"OBJECT_NAME":"CZ-2C R/B","OBJECT_ID":"2022-058K","EPOCH":"2026-03-13T15:02:21.121440","MEAN_MOTION":15.54530228,"ECCENTRICITY":0.00420643,"INCLINATION":50.1892,"RA_OF_ASC_NODE":298.0335,"ARG_OF_PERICENTER":217.5688,"MEAN_ANOMALY":142.2341,"EPHEMERIS_TYPE":0,"CLASSIFICATION_TYPE":"U","NORAD_CAT_ID":52794,"ELEMENT_SET_NO":999,"REV_AT_EPOCH":21074,"BSTAR":0.0005427397,"MEAN_MOTION_DOT":0.00037629,"MEAN_MOTION_DDOT":0},{"OBJECT_NAME":"CZ-2C R/B","OBJECT_ID":"2022-132E","EPOCH":"2026-03-13T11:19:10.460640","MEAN_MOTION":15.62221713,"ECCENTRICITY":0.00204062,"INCLINATION":97.2965,"RA_OF_ASC_NODE":75.9042,"ARG_OF_PERICENTER":79.5006,"MEAN_ANOMALY":280.855,"EPHEMERIS_TYPE":0,"CLASSIFICATION_TYPE":"U","NORAD_CAT_ID":54039,"ELEMENT_SET_NO":999,"REV_AT_EPOCH":19096,"BSTAR":0.00059235419,"MEAN_MOTION_DOT":0.00052766,"MEAN_MOTION_DDOT":0},{"OBJECT_NAME":"GSLV R/B","OBJECT_ID":"2022-138AN","EPOCH":"2026-03-13T07:56:37.777056","MEAN_MOTION":14.96804057,"ECCENTRICITY":0.00234689,"INCLINATION":87.3882,"RA_OF_ASC_NODE":165.1445,"ARG_OF_PERICENTER":134.2795,"MEAN_ANOMALY":226.0368,"EPHEMERIS_TYPE":0,"CLASSIFICATION_TYPE":"U","NORAD_CAT_ID":54149,"ELEMENT_SET_NO":999,"REV_AT_EPOCH":18447,"BSTAR":0.00035237866,"MEAN_MOTION_DOT":4.083e-5,"MEAN_MOTION_DDOT":0},{"OBJECT_NAME":"XRISM","OBJECT_ID":"2023-137A","EPOCH":"2026-03-13T14:28:00.777792","MEAN_MOTION":15.11547716,"ECCENTRICITY":0.00078798,"INCLINATION":31.0009,"RA_OF_ASC_NODE":258.3526,"ARG_OF_PERICENTER":78.1842,"MEAN_ANOMALY":281.968,"EPHEMERIS_TYPE":0,"CLASSIFICATION_TYPE":"U","NORAD_CAT_ID":57800,"ELEMENT_SET_NO":999,"REV_AT_EPOCH":13838,"BSTAR":0.00035005208,"MEAN_MOTION_DOT":6.184e-5,"MEAN_MOTION_DDOT":0},{"OBJECT_NAME":"ACS3","OBJECT_ID":"2024-077B","EPOCH":"2026-03-13T07:32:06.160416","MEAN_MOTION":13.89761996,"ECCENTRICITY":0.00627907,"INCLINATION":97.2045,"RA_OF_ASC_NODE":12.6111,"ARG_OF_PERICENTER":67.8385,"MEAN_ANOMALY":292.9427,"EPHEMERIS_TYPE":0,"CLASSIFICATION_TYPE":"U","NORAD_CAT_ID":59588,"ELEMENT_SET_NO":999,"REV_AT_EPOCH":9470,"BSTAR":0.011846763,"MEAN_MOTION_DOT":0.00014774,"MEAN_MOTION_DDOT":0},{"OBJECT_NAME":"SZ-21 MODULE","OBJECT_ID":"2025-246C","EPOCH":"2026-03-13T13:47:50.452800","MEAN_MOTION":15.68874146,"ECCENTRICITY":0.00010106,"INCLINATION":41.4731,"RA_OF_ASC_NODE":179.4377,"ARG_OF_PERICENTER":309.0341,"MEAN_ANOMALY":51.041,"EPHEMERIS_TYPE":0,"CLASSIFICATION_TYPE":"U","NORAD_CAT_ID":66515,"ELEMENT_SET_NO":999,"REV_AT_EPOCH":1868,"BSTAR":0.00036004804,"MEAN_MOTION_DOT":0.00042463,"MEAN_MOTION_DDOT":0}]
